NORAD_CAT_ID,OBJECT_NAME,OBJECT_TYPE,EPOCH,MEAN_MOTION,ECCENTRICITY,INCLINATION,RA_OF_ASC_NODE,ARG_OF_PERICENTER,MEAN_ANOMALY,BSTAR,MEAN_MOTION_DOT,MEAN_MOTION_DDOT,TLE_LINE0,TLE_LINE1,TLE_LINE2,SEMIMAJOR_AXIS,PERIOD,APOGEE,PERIGEE,DECAYED
52477.0,STARLINK-3860,PAYLOAD,2024-04-04 22:15:55,15.08839246,0.0001158,53.2179,328.4315,89.3428,270.7696,0.00015454,2.172e-05,0.0,0 STARLINK-3860,1 52477U 22049AC  24095.92773071  .00002172  00000-0  15454-3 0  9992,2 52477  53.2179 328.4315 0001158  89.3428 270.7696 15.08839246107381,6917.883,95.438,540.549,538.947,0.0
52477.0,STARLINK-3860,PAYLOAD,2024-04-05 01:26:42,15.08838222,0.0001139,53.218,327.8369,88.7448,271.3674,0.00015758,2.221e-05,0.0,0 STARLINK-3860,1 52477U 22049AC  24096.06021129  .00002221  00000-0  15758-3 0  9990,2 52477  53.2180 327.8369 0001139  88.7448 271.3674 15.08838222107408,6917.886,95.438,540.539,538.963,0.0
52477.0,STARLINK-3860,PAYLOAD,2024-04-05 20:31:19,15.0884116,0.0001075,53.217,324.2681,86.7558,273.3557,0.00012715,1.736e-05,0.0,0 STARLINK-3860,1 52477U 22049AC  24096.85508953  .00001736  00000-0  12715-3 0  9992,2 52477  53.2170 324.2681 0001075  86.7558 273.3557 15.08841160107524,6917.877,95.437,540.486,538.998,0.0
52477.0,STARLINK-3860,PAYLOAD,2024-04-06 01:17:29,15.08843057,0.000104,53.2166,323.3753,84.6095,275.5016,0.00010926,1.452e-05,0.0,0 STARLINK-3860,1 52477U 22049AC  24097.05380814  .00001452  00000-0  10926-3 0  9996,2 52477  53.2166 323.3753 0001040  84.6095 275.5016 15.08843057106478,6917.871,95.437,540.456,539.017,0.0
52477.0,STARLINK-3860,PAYLOAD,2024-04-06 14:00:33,15.08844128,0.0001287,53.219,321.0012,100.6896,259.4241,0.00011138,1.485e-05,0.0,0 STARLINK-3860,1 52477U 22049AC  24097.58372667  .00001485  00000-0  11138-3 0  9993,2 52477  53.2190 321.0012 0001287 100.6896 259.4241 15.08844128107639,6917.868,95.437,540.623,538.842,0.0
52477.0,STARLINK-3860,PAYLOAD,2024-04-06 21:57:30,15.08836503,0.0001337,53.22,319.5138,96.1028,264.0117,-1.0733e-05,-4.59e-06,0.0,0 STARLINK-3860,1 52477U 22049AC  24097.91493139 -.00000459  00000-0 -10733-4 0  9991,2 52477  53.2200 319.5138 0001337  96.1028 264.0117 15.08836503106602,6917.891,95.438,540.681,538.831,0.0
52477.0,STARLINK-3860,PAYLOAD,2024-04-07 07:29:48,15.08841786,0.0001218,53.2174,317.7287,89.8455,270.2676,5.9001e-05,6.51e-06,0.0,0 STARLINK-3860,1 52477U 22049AC  24098.31236892  .00000651  00000-0  59001-4 0  9990,2 52477  53.2174 317.7287 0001218  89.8455 270.2676 15.08841786107742,6917.875,95.437,540.583,538.897,0.0
52477.0,STARLINK-3860,PAYLOAD,2024-04-07 21:48:17,15.08835053,0.0001297,53.2186,315.052,98.0446,262.0693,-2.3182e-05,-6.57e-06,0.0,0 STARLINK-3860,1 52477U 22049AC  24098.90853328 -.00000657  00000-0 -23182-4 0  9993,2 52477  53.2186 315.0520 0001297  98.0446 262.0693 15.08835053107833,6917.896,95.438,540.658,538.863,0.0
52477.0,STARLINK-3860,PAYLOAD,2024-04-07 23:23:40,15.08834837,0.0001273,53.2181,314.7548,96.4978,263.6159,-3.0194e-05,-7.68e-06,0.0,0 STARLINK-3860,1 52477U 22049AC  24098.97477369 -.00000768  00000-0 -30194-4 0  9991,2 52477  53.2181 314.7548 0001273  96.4978 263.6159 15.08834837106764,6917.896,95.438,540.642,538.881,0.0
52477.0,STARLINK-3860,PAYLOAD,2024-04-08 07:20:33,15.08872238,0.000139,53.2193,313.2684,91.5801,268.5351,0.00030495,4.573e-05,0.0,0 STARLINK-3860,1 52477U 22049AC  24099.30594503  .00004573  00000-0  30495-3 0  9998,2 52477  53.2193 313.2684 0001390  91.5801 268.5351 15.08872238106814,6917.782,95.436,540.608,538.685,0.0
52477.0,STARLINK-3860,PAYLOAD,2024-04-08 21:38:55,15.08937263,0.0001293,53.2189,310.5903,76.4409,283.6727,0.00084057,0.0001315,0.0,0 STARLINK-3860,1 52477U 22049AC  24099.90202690  .00013150  00000-0  84057-3 0  9991,2 52477  53.2189 310.5903 0001293  76.4409 283.6727 15.08937263107985,6917.583,95.431,540.343,538.554,0.0
52477.0,STARLINK-3860,PAYLOAD,2024-04-09 13:32:58,15.08779036,7.04e-05,53.2177,307.6167,56.1857,303.9202,-0.00045048,-7.438e-05,0.0,0 STARLINK-3860,1 52477U 22049AC  24100.56456560 -.00007438  00000-0 -45048-3 0  9994,2 52477  53.2177 307.6167 0000704  56.1857 303.9202 15.08779036107008,6918.067,95.441,540.419,539.445,0.0
52477.0,STARLINK-3860,PAYLOAD,2024-04-09 23:05:19,15.08765784,3.45e-05,53.2186,305.8325,348.0589,12.0395,-0.00063588,-0.00010372,0.0,0 STARLINK-3860,1 52477U 22049AC  24100.96203201 -.00010372  00000-0 -63588-3 0  9990,2 52477  53.2186 305.8325 0000345 348.0589  12.0395 15.08765784107062,6918.107,95.442,540.211,539.734,0.0
52477.0,STARLINK-3860,PAYLOAD,2024-04-10 13:23:41,15.08874504,4.67e-05,53.2209,303.155,358.0945,2.0045,-0.00058496,-9.594e-05,0.0,0 STARLINK-3860,1 52477U 22049AC  24101.55812110 -.00009594  00000-0 -58496-3 0  9997,2 52477  53.2209 303.1550 0000467 358.0945   2.0045 15.08874504107153,6917.775,95.435,539.963,539.317,0.0
52477.0,STARLINK-3860,PAYLOAD,2024-04-10 19:45:11,15.08896249,0.0001208,53.2168,301.966,62.2315,297.8799,-0.00034333,-5.756e-05,0.0,0 STARLINK-3860,1 52477U 22049AC  24101.82305459 -.00005756  00000-0 -34333-3 0  9990,2 52477  53.2168 301.9660 0001208  62.2315 297.8799 15.08896249107198,6917.708,95.434,540.409,538.738,0.0
52477.0,STARLINK-3860,PAYLOAD,2024-04-10 22:55:59,15.08813829,0.0001881,53.2173,301.37,70.6975,289.4221,0.00090566,0.00014145,0.0,0 STARLINK-3860,1 52477U 22049AC  24101.95555344  .00014145  00000-0  90566-3 0  9994,2 52477  53.2173 301.3700 0001881  70.6975 289.4221 15.08813829108297,6917.96,95.439,541.127,538.524,0.0
52477.0,STARLINK-3860,PAYLOAD,2024-04-11 05:17:32,15.08827519,0.0001849,53.2176,300.1809,69.2339,290.8851,0.00096422,0.00015086,0.0,0 STARLINK-3860,1 52477U 22049AC  24102.22051086  .00015086  00000-0  96422-3 0  9991,2 52477  53.2176 300.1809 0001849  69.2339 290.8851 15.08827519107250,6917.919,95.438,541.063,538.504,0.0
52477.0,STARLINK-3860,PAYLOAD,2024-04-11 19:36:04,15.08792348,0.0001348,53.2183,297.5059,39.308,320.801,0.00069572,0.00010787,0.0,0 STARLINK-3860,1 52477U 22049AC  24102.81671558  .00010787  00000-0  69572-3 0  9997,2 52477  53.2183 297.5059 0001348  39.3080 320.8010 15.08792348107341,6918.026,95.441,540.824,538.958,0.0
52477.0,STARLINK-3860,PAYLOAD,2024-04-12 22:37:35,15.08850606,0.0001167,53.2173,292.4482,60.6141,299.4968,-0.00013194,-2.388e-05,0.0,0 STARLINK-3860,1 52477U 22049AC  24103.94277311 -.00002388  00000-0 -13194-3 0  9990,2 52477  53.2173 292.4482 0001167  60.6141 299.4968 15.08850606108591,6917.848,95.437,540.52,538.906,0.0
52477.0,STARLINK-3860,PAYLOAD,2024-04-13 11:20:39,15.08864161,0.0001236,53.2175,290.0686,53.7869,306.3237,-0.00063908,-0.00010451,0.0,0 STARLINK-3860,1 52477U 22049AC  24104.47268048 -.00010451  00000-0 -63908-3 0  9994,2 52477  53.2175 290.0686 0001236  53.7869 306.3237 15.08864161107597,6917.807,95.436,540.527,538.816,0.0
52477.0,STARLINK-3860,PAYLOAD,2024-04-13 17:42:13,15.08838785,9.44e-05,53.2169,288.8797,83.6804,276.4296,9.218e-05,1.18e-05,0.0,0 STARLINK-3860,1 52477U 22049AC  24104.73765760  .00001180  00000-0  92180-4 0  9998,2 52477  53.2169 288.8797 0000944  83.6804 276.4296 15.08838785107634,6917.884,95.438,540.402,539.096,0.0
52477.0,STARLINK-3860,PAYLOAD,2024-04-14 19:08:23,15.08840774,9.96e-05,53.2168,284.1224,86.1522,273.9584,0.00012152,1.647e-05,0.0,0 STARLINK-3860,1 52477U 22049AC  24105.79749829  .00001647  00000-0  12152-3 0  9991,2 52477  53.2168 284.1224 0000996  86.1522 273.9584 15.08840774107799,6917.878,95.438,540.432,539.054,0.0
52477.0,STARLINK-3860,PAYLOAD,2024-04-15 11:02:15,15.08840742,0.0001021,53.2169,281.1492,89.8348,270.2761,9.6401e-05,1.247e-05,0.0,0 STARLINK-3860,1 52477U 22049AC  24106.45989893  .00001247  00000-0  96401-4 0  9998,2 52477  53.2169 281.1492 0001021  89.8348 270.2761 15.08840742108973,6917.878,95.438,540.449,539.037,0.0
52477.0,STARLINK-3860,PAYLOAD,2024-04-16 10:53:01,15.08856264,0.0001033,53.2175,276.6939,93.394,266.717,-0.00019411,-3.377e-05,0.0,0 STARLINK-3860,1 52477U 22049AC  24107.45349201 -.00003377  00000-0 -19411-3 0  9995,2 52477  53.2175 276.6939 0001033  93.3940 266.7170 15.08856264108044,6917.831,95.437,540.41,538.981,0.0
52477.0,STARLINK-3860,PAYLOAD,2024-04-16 18:49:57,15.08849182,0.0001129,53.217,275.2031,88.9562,271.156,0.00019879,2.878e-05,0.0,0 STARLINK-3860,1 52477U 22049AC  24107.78469519  .00002878  00000-0  19879-3 0  9997,2 52477  53.2170 275.2031 0001129  88.9562 271.1560 15.08849182108092,6917.852,95.437,540.498,538.936,0.0
52477.0,STARLINK-3860,PAYLOAD,2024-04-17 10:43:49,15.08836955,0.0001257,53.2177,272.2298,85.5331,274.5805,0.00010271,1.347e-05,0.0,0 STARLINK-3860,1 52477U 22049AC  24108.44710441  .00001347  00000-0  10271-3 0  9991,2 52477  53.2177 272.2298 0001257  85.5331 274.5805 15.08836955108194,6917.89,95.438,540.624,538.885,0.0
52477.0,STARLINK-3860,PAYLOAD,2024-04-17 17:05:23,15.08809656,0.0001282,53.2161,271.036,109.2729,250.8402,-0.00043313,-7.169e-05,0.0,0 STARLINK-3860,1 52477U 22049AC  24108.71207515 -.00007169  00000-0 -43313-3 0  9997,2 52477  53.2161 271.0360 0001282 109.2729 250.8402 15.08809656108230,6917.973,95.439,540.725,538.951,0.0
52477.0,STARLINK-3860,PAYLOAD,2024-04-18 10:34:37,15.08830625,7.36e-05,53.2166,267.7649,99.8853,260.2222,6.5903e-05,7.61e-06,0.0,0 STARLINK-3860,1 52477U 22049AC  24109.44071479  .00000761  00000-0  65903-4 0  9995,2 52477  53.2166 267.7649 0000736  99.8853 260.2222 15.08830625108349,6917.909,95.438,540.283,539.265,0.0
52477.0,STARLINK-3860,PAYLOAD,2024-04-18 16:56:09,15.08861303,0.0001243,53.2164,266.5763,101.3693,258.7439,0.00070771,0.00011,0.0,0 STARLINK-3860,1 52477U 22049AC  24109.70566632  .00011000  00000-0  70771-3 0  9990,2 52477  53.2164 266.5763 0001243 101.3693 258.7439 15.08861303108389,6917.815,95.436,540.54,538.82,0.0
52477.0,STARLINK-3860,PAYLOAD,2024-04-19 13:36:10,15.08850554,0.0001284,53.2158,262.7012,136.9064,223.2029,0.00051211,7.874e-05,0.0,0 STARLINK-3860,1 52477U 22049AC  24110.56678558  .00007874  00000-0  51211-3 0  9999,2 52477  53.2158 262.7012 0001284 136.9064 223.2029 15.08850554108511,6917.848,95.437,540.601,538.825,0.0
